{
    "CCSDS_OMM_VERS": "3.0",
    "COMMENT": "GENERATED VIA SPACE-TRACK.ORG API",
    "CREATION_DATE": "2025-05-22T22:26:24",
    "ORIGINATOR": "18 SPCS",
    "OBJECT_NAME": "BEIDOU 3",
    "OBJECT_ID": "2010-001A",
    "CENTER_NAME": "EARTH",
    "REF_FRAME": "TEME",
    "TIME_SYSTEM": "UTC",
    "MEAN_ELEMENT_THEORY": "SGP4",
    "EPOCH": "2025-05-22T19:47:48.188256",
    "MEAN_MOTION": "1.00267886",
    "ECCENTRICITY": "0.00032650",
    "INCLINATION": "3.3826",
    "RA_OF_ASC_NODE": "60.6496",
    "ARG_OF_PERICENTER": "310.1688",
    "MEAN_ANOMALY": "307.2341",
    "EPHEMERIS_TYPE": "0",
    "CLASSIFICATION_TYPE": "U",
    "NORAD_CAT_ID": "36287",
    "ELEMENT_SET_NO": "999",
    "REV_AT_EPOCH": "5625",
    "BSTAR": "0.00000000000000",
    "MEAN_MOTION_DOT": "-0.00000271",
    "MEAN_MOTION_DDOT": "0.0000000000000",
    "SEMIMAJOR_AXIS": "42165.825",
    "PERIOD": "1436.153",
    "APOAPSIS": "35801.457",
    "PERIAPSIS": "35773.923",
    "OBJECT_TYPE": "PAYLOAD",
    "RCS_SIZE": "LARGE",
    "COUNTRY_CODE": "PRC",
    "LAUNCH_DATE": "2010-01-16",
    "SITE": "XSC",
    "DECAY_DATE": null,
    "FILE": "4736249",
    "GP_ID": "288160251",
    "TLE_LINE0": "0 BEIDOU 3",
    "TLE_LINE1": "1 36287U 10001A   25142.82486329 -.00000271  00000-0  00000+0 0  9994",
    "TLE_LINE2": "2 36287   3.3826  60.6496 0003265 310.1688 307.2341  1.00267886 56250"
}